NORAD_CAT_ID,OBJECT_NAME,OBJECT_TYPE,EPOCH,MEAN_MOTION,ECCENTRICITY,INCLINATION,RA_OF_ASC_NODE,ARG_OF_PERICENTER,MEAN_ANOMALY,BSTAR,MEAN_MOTION_DOT,MEAN_MOTION_DDOT,TLE_LINE0,TLE_LINE1,TLE_LINE2,SEMIMAJOR_AXIS,PERIOD,APOGEE,PERIGEE,DECAYED
56488.0,STARLINK-6204,PAYLOAD,2024-02-04 20:36:53,14.98334104,0.0002743,69.9997,230.515,271.4414,88.6431,1.5182e-05,8.8e-07,0.0,0 STARLINK-6204,1 56488U 23064AS  24035.85895787  .00000088  00000-0  15182-4 0  9994,2 56488  69.9997 230.5150 0002743 271.4414  88.6431 14.98334104 41818,6950.18,96.107,573.952,570.139,0.0
56488.0,STARLINK-6204,PAYLOAD,2024-02-05 14:14:23,14.98327433,0.0002702,69.9997,228.6628,269.3776,90.7073,-3.542e-05,-5.16e-06,0.0,0 STARLINK-6204,1 56488U 23064AS  24036.59332253 -.00000516  00000-0 -35420-4 0  9995,2 56488  69.9997 228.6628 0002702 269.3776  90.7073 14.98327433 41923,6950.201,96.107,573.944,570.188,0.0
56488.0,STARLINK-6204,PAYLOAD,2024-02-05 19:02:47,14.98327204,0.0002706,69.9998,228.1579,269.5181,90.5668,-3.5781e-05,-5.2e-06,0.0,0 STARLINK-6204,1 56488U 23064AS  24036.79360290 -.00000520  00000-0 -35781-4 0  9994,2 56488  69.9998 228.1579 0002706 269.5181  90.5668 14.98327204 42318,6950.202,96.107,573.947,570.186,0.0
56488.0,STARLINK-6204,PAYLOAD,2024-02-05 22:15:03,14.98327603,0.0002702,69.9998,227.8213,269.6067,90.4782,-3.0535e-05,-4.57e-06,0.0,0 STARLINK-6204,1 56488U 23064AS  24036.92712262 -.00000457  00000-0 -30535-4 0  9990,2 56488  69.9998 227.8213 0002702 269.6067  90.4782 14.98327603 41979,6950.2,96.107,573.943,570.187,0.0
56488.0,STARLINK-6204,PAYLOAD,2024-02-06 14:16:23,14.9833238,0.0002719,69.9998,226.1375,269.3136,90.7712,-9.6162e-06,-2.08e-06,0.0,0 STARLINK-6204,1 56488U 23064AS  24037.59471850 -.00000208  00000-0 -96162-5 0  9992,2 56488  69.9998 226.1375 0002719 269.3136  90.7712 14.98332380 42078,6950.186,96.107,573.94,570.161,0.0
56488.0,STARLINK-6204,PAYLOAD,2024-02-06 19:04:47,14.98332743,0.0002715,69.9999,225.6328,269.559,90.5258,-4.4535e-06,-1.46e-06,0.0,0 STARLINK-6204,1 56488U 23064AS  24037.79499785 -.00000146  00000-0 -44535-5 0  9999,2 56488  69.9999 225.6328 0002715 269.5590  90.5258 14.98332743 42462,6950.184,96.107,573.936,570.162,0.0
56488.0,STARLINK-6204,PAYLOAD,2024-02-06 22:17:03,14.9833354,0.0002707,70.0,225.2963,269.7413,90.3435,5.0734e-06,-3.2e-07,0.0,0 STARLINK-6204,1 56488U 23064AS  24037.92851684 -.00000032  00000-0  50734-5 0  9995,2 56488  70.0000 225.2963 0002707 269.7413  90.3435 14.98333540 42120,6950.182,96.107,573.928,570.166,0.0
56488.0,STARLINK-6204,PAYLOAD,2024-02-07 14:18:24,14.98329774,0.0002761,70.0,223.6139,270.235,89.8492,4.97e-05,5e-06,0.0,0 STARLINK-6204,1 56488U 23064AS  24038.59611699  .00000500  00000-0  49700-4 0  9998,2 56488  70.0000 223.6139 0002761 270.2350  89.8492 14.98329774 42225,6950.194,96.107,573.978,570.14,0.0
56488.0,STARLINK-6204,PAYLOAD,2024-02-07 19:06:48,14.98330812,0.000277,70.0001,223.1094,268.3673,91.7168,3.9243e-05,3.75e-06,0.0,0 STARLINK-6204,1 56488U 23064AS  24038.79639643  .00000375  00000-0  39243-4 0  9990,2 56488  70.0001 223.1094 0002770 268.3673  91.7168 14.98330812 42617,6950.19,96.107,573.981,570.13,0.0
56488.0,STARLINK-6204,PAYLOAD,2024-02-07 22:19:04,14.98331237,0.0002763,70.0001,222.7725,268.9929,91.0913,4.3099e-05,4.21e-06,0.0,0 STARLINK-6204,1 56488U 23064AS  24038.92991591  .00000421  00000-0  43099-4 0  9994,2 56488  70.0001 222.7725 0002763 268.9929  91.0913 14.98331237 42270,6950.189,96.107,573.974,570.134,0.0
56488.0,STARLINK-6204,PAYLOAD,2024-02-08 14:20:25,14.98328696,0.0002674,70.0005,221.0891,270.6515,89.4338,-4.2408e-05,-5.99e-06,0.0,0 STARLINK-6204,1 56488U 23064AS  24039.59751997 -.00000599  00000-0 -42408-4 0  9993,2 56488  70.0005 221.0891 0002674 270.6515  89.4338 14.98328696 42370,6950.197,96.107,573.92,570.203,0.0
56488.0,STARLINK-6204,PAYLOAD,2024-02-08 19:08:50,14.98327177,0.0002688,70.0007,220.5843,270.7058,89.3793,-5.7216e-05,-7.75e-06,0.0,0 STARLINK-6204,1 56488U 23064AS  24039.79780147 -.00000775  00000-0 -57216-4 0  9993,2 56488  70.0007 220.5843 0002688 270.7058  89.3793 14.98327177 42761,6950.202,96.107,573.935,570.198,0.0
56488.0,STARLINK-6204,PAYLOAD,2024-02-08 22:21:06,14.98327735,0.0002684,70.0007,220.2477,270.7932,89.292,-4.9242e-05,-6.8e-06,0.0,0 STARLINK-6204,1 56488U 23064AS  24039.93132102 -.00000680  00000-0 -49242-4 0  9996,2 56488  70.0007 220.2477 0002684 270.7932  89.2920 14.98327735 42422,6950.2,96.107,573.93,570.199,0.0
56488.0,STARLINK-6204,PAYLOAD,2024-02-09 14:22:26,14.98333629,0.000277,70.0007,218.5642,272.3094,87.7747,1.3931e-05,7.3e-07,0.0,0 STARLINK-6204,1 56488U 23064AS  24040.59891471  .00000073  00000-0  13931-4 0  9991,2 56488  70.0007 218.5642 0002770 272.3094  87.7747 14.98333629 42529,6950.182,96.107,573.972,570.121,0.0
56488.0,STARLINK-6204,PAYLOAD,2024-02-09 19:10:50,14.98333625,0.000277,70.0008,218.0593,272.4255,87.6587,1.4889e-05,8.5e-07,0.0,0 STARLINK-6204,1 56488U 23064AS  24040.79919425  .00000085  00000-0  14889-4 0  9999,2 56488  70.0008 218.0593 0002770 272.4255  87.6587 14.98333625 42910,6950.182,96.107,573.972,570.121,0.0
56488.0,STARLINK-6204,PAYLOAD,2024-02-10 11:12:11,14.98326388,0.0002738,70.001,216.376,268.3234,91.7612,1.0287e-05,3e-07,0.0,0 STARLINK-6204,1 56488U 23064AS  24041.46679804  .00000030  00000-0  10287-4 0  9996,2 56488  70.0010 216.3760 0002738 268.3234  91.7612 14.98326388 43010,6950.204,96.107,573.972,570.166,0.0
56488.0,STARLINK-6204,PAYLOAD,2024-02-10 14:24:27,14.98326381,0.0002741,70.001,216.0395,266.1508,93.9338,9.3469e-06,1.9e-07,0.0,0 STARLINK-6204,1 56488U 23064AS  24041.60031807  .00000019  00000-0  93469-5 0  9998,2 56488  70.0010 216.0395 0002741 266.1508  93.9338 14.98326381 42678,6950.204,96.107,573.974,570.164,0.0
56488.0,STARLINK-6204,PAYLOAD,2024-02-10 20:48:59,14.98326382,0.0002748,70.0011,215.3664,266.3954,93.6891,7.0511e-06,-9e-08,0.0,0 STARLINK-6204,1 56488U 23064AS  24041.86735862 -.00000009  00000-0  70511-5 0  9991,2 56488  70.0011 215.3664 0002748 266.3954  93.6891 14.98326382 42711,6950.204,96.107,573.979,570.159,0.0
56488.0,STARLINK-6204,PAYLOAD,2024-02-11 14:26:28,14.98333131,0.0002714,70.0013,213.5152,262.4561,97.629,-1.2485e-05,-2.42e-06,0.0,0 STARLINK-6204,1 56488U 23064AS  24042.60171440 -.00000242  00000-0 -12485-4 0  9995,2 56488  70.0013 213.5152 0002714 262.4561  97.6290 14.98333131 42828,6950.183,96.107,573.934,570.162,0.0
56488.0,STARLINK-6204,PAYLOAD,2024-02-11 19:14:52,14.98333139,0.0002706,70.0014,213.0106,262.9068,97.1783,-1.0506e-05,-2.18e-06,0.0,0 STARLINK-6204,1 56488U 23064AS  24042.80199398 -.00000218  00000-0 -10506-4 0  9994,2 56488  70.0014 213.0106 0002706 262.9068  97.1783 14.98333139 43215,6950.183,96.107,573.929,570.167,0.0
56488.0,STARLINK-6204,PAYLOAD,2024-02-11 20:51:00,14.98333531,0.0002703,70.0015,212.8423,262.9027,97.1824,-6.0928e-06,-1.66e-06,0.0,0 STARLINK-6204,1 56488U 23064AS  24042.86875346 -.00000166  00000-0 -60928-5 0  9990,2 56488  70.0015 212.8423 0002703 262.9027  97.1824 14.98333531 42869,6950.182,96.107,573.926,570.168,0.0
56488.0,STARLINK-6204,PAYLOAD,2024-02-12 14:28:29,14.98329909,0.0002796,70.0015,210.9919,266.6107,93.4732,3.0844e-05,2.75e-06,0.0,0 STARLINK-6204,1 56488U 23064AS  24043.60311381  .00000275  00000-0  30844-4 0  9999,2 56488  70.0015 210.9919 0002796 266.6107  93.4732 14.98329909 42973,6950.193,96.107,574.001,570.115,0.0
56488.0,STARLINK-6204,PAYLOAD,2024-02-12 19:16:53,14.98329822,0.0002801,70.0015,210.4869,266.3916,93.6923,2.7786e-05,2.39e-06,0.0,0 STARLINK-6204,1 56488U 23064AS  24043.80339391  .00000239  00000-0  27786-4 0  9993,2 56488  70.0015 210.4869 0002801 266.3916  93.6923 14.98329822 43366,6950.193,96.107,574.005,570.112,0.0
56488.0,STARLINK-6204,PAYLOAD,2024-02-12 20:53:01,14.98329891,0.0002816,70.0014,210.3185,267.1498,92.9339,2.6527e-05,2.24e-06,0.0,0 STARLINK-6204,1 56488U 23064AS  24043.87015386  .00000224  00000-0  26527-4 0  9991,2 56488  70.0014 210.3185 0002816 267.1498  92.9339 14.98329891 43016,6950.193,96.107,574.015,570.101,0.0
56488.0,STARLINK-6204,PAYLOAD,2024-02-13 14:30:30,14.98329761,0.0002762,70.0017,208.4676,264.9907,95.0937,-3.4544e-05,-5.05e-06,0.0,0 STARLINK-6204,1 56488U 23064AS  24044.60451561 -.00000505  00000-0 -34544-4 0  9994,2 56488  70.0017 208.4676 0002762 264.9907  95.0937 14.98329761 43128,6950.194,96.107,573.978,570.139,0.0
56488.0,STARLINK-6204,PAYLOAD,2024-02-13 19:18:54,14.98329963,0.0002756,70.0016,207.9626,264.4104,95.6741,-3.1796e-05,-4.72e-06,0.0,0 STARLINK-6204,1 56488U 23064AS  24044.80479538 -.00000472  00000-0 -31796-4 0  9999,2 56488  70.0016 207.9626 0002756 264.4104  95.6741 14.98329963 43519,6950.193,96.107,573.973,570.143,0.0
56488.0,STARLINK-6204,PAYLOAD,2024-02-13 20:55:02,14.983307,0.0002756,70.0016,207.7941,264.959,95.1254,-2.2735e-05,-3.64e-06,0.0,0 STARLINK-6204,1 56488U 23064AS  24044.87155468 -.00000364  00000-0 -22735-4 0  9992,2 56488  70.0016 207.7941 0002756 264.9590  95.1254 14.98330700 43167,6950.191,96.107,573.971,570.14,0.0
56488.0,STARLINK-6204,PAYLOAD,2024-02-14 14:32:30,14.98331815,0.0002797,70.0016,205.9426,266.121,93.9629,1.36e-05,6.9e-07,0.0,0 STARLINK-6204,1 56488U 23064AS  24045.60591211  .00000069  00000-0  13600-4 0  9995,2 56488  70.0016 205.9426 0002797 266.1210  93.9629 14.98331815 43275,6950.187,96.107,573.996,570.108,0.0
56488.0,STARLINK-6204,PAYLOAD,2024-02-14 20:57:02,14.98333599,0.0002835,70.0014,205.2682,269.8421,90.2413,3.4328e-05,3.17e-06,0.0,0 STARLINK-6204,1 56488U 23064AS  24045.87295012  .00000317  00000-0  34328-4 0  9990,2 56488  70.0014 205.2682 0002835 269.8421  90.2413 14.98333599 43314,6950.182,96.107,574.017,570.076,0.0
56488.0,STARLINK-6204,PAYLOAD,2024-02-15 03:21:35,14.98328924,0.0002824,70.0015,204.5947,271.1486,88.9349,-1.5972e-05,-2.84e-06,0.0,0 STARLINK-6204,1 56488U 23064AS  24046.13999420 -.00000284  00000-0 -15972-4 0  9993,2 56488  70.0015 204.5947 0002824 271.1486  88.9349 14.98328924 43718,6950.196,96.107,574.024,570.098,0.0
